STARLINK-31487          
1 59297U 24056B   26068.50519441  .00001010  00000+0  46196-4 0  9991
2 59297  43.0054 231.9648 0001821 256.8668 103.1981 15.27601209111241
2025-313BD              
1 67299U 25313BD  26068.62968741  .00081010  00000+0  27634-2 0  9995
2 67299  97.3970 145.2850 0007287 333.4514  26.6352 15.30002360 10838
